NORAD_CAT_ID,OBJECT_NAME,OBJECT_TYPE,EPOCH,MEAN_MOTION,ECCENTRICITY,INCLINATION,RA_OF_ASC_NODE,ARG_OF_PERICENTER,MEAN_ANOMALY,BSTAR,MEAN_MOTION_DOT,MEAN_MOTION_DDOT,TLE_LINE0,TLE_LINE1,TLE_LINE2,SEMIMAJOR_AXIS,PERIOD,APOGEE,PERIGEE,DECAYED
49136.0,STARLINK-3084,PAYLOAD,2022-07-13 20:05:32,14.96731485,0.000309,70.001,39.7935,253.0226,107.0594,0.00044984,5.063e-05,0.0,0 STARLINK-3084,1 49136U 21082G   22194.83717599  .00005063  00000-0  44984-3 0  9999,2 49136  70.0010  39.7935 0003090 253.0226 107.0594 14.96731485 46544,6955.141,96.21,579.155,574.856,0.0
49136.0,STARLINK-3084,PAYLOAD,2022-07-14 07:19:11,14.96723793,0.000307,70.001,38.6167,253.2474,106.8348,9.7157e-05,1.021e-05,0.0,0 STARLINK-3084,1 49136U 21082G   22195.30499902  .00001021  00000-0  97157-4 0  9998,2 49136  70.0010  38.6167 0003070 253.2474 106.8348 14.96723793 46619,6955.1640000000025,96.21,579.165,574.894,0.0
49136.0,STARLINK-3084,PAYLOAD,2022-07-14 20:09:06,14.96723603,0.0003062,70.0007,37.2719,252.9232,107.159,8.518700000000001e-05,8.84e-06,0.0,0 STARLINK-3084,1 49136U 21082G   22195.83965349  .00000884  00000-0  85187-4 0  9995,2 49136  70.0007  37.2719 0003062 252.9232 107.1590 14.96723603 46693,6955.165,96.21,579.16,574.9,0.0
49136.0,STARLINK-3084,PAYLOAD,2022-07-15 12:11:28,14.96727878,0.0003067,70.0008,35.5909,252.8619,107.2203,0.00010758,1.14e-05,0.0,0 STARLINK-3084,1 49136U 21082G   22196.50796721  .00001140  00000-0  10758-3 0  9993,2 49136  70.0008  35.5909 0003067 252.8619 107.2203 14.96727878 46790,6955.151999999999,96.21,579.15,574.884,0.0
49136.0,STARLINK-3084,PAYLOAD,2022-07-15 20:12:39,14.96730309,0.0003095,70.0009,34.7504,253.4479,106.6339,0.00014084,1.521e-05,0.0,0 STARLINK-3084,1 49136U 21082G   22196.84212350  .00001521  00000-0  14084-3 0  9990,2 49136  70.0009  34.7504 0003095 253.4479 106.6339 14.96730309 46847,6955.144,96.21,579.1619999999998,574.857,0.0
49136.0,STARLINK-3084,PAYLOAD,2022-07-15 23:25:08,14.96720973,0.0003123,70.0008,34.4143,253.519,106.5625,-4.9204e-05,-6.55e-06,0.0,0 STARLINK-3084,1 49136U 21082G   22196.97579153 -.00000655  00000-0 -49204-4 0  9993,2 49136  70.0008  34.4143 0003123 253.5190 106.5625 14.96720973 46860,6955.1730000000025,96.21,579.21,574.866,0.0
49136.0,STARLINK-3084,PAYLOAD,2022-07-16 12:15:03,14.96713326,0.0003203,69.9998,33.0698,252.971,107.1097,4.7834e-05,4.56e-06,0.0,0 STARLINK-3084,1 49136U 21082G   22197.51045345  .00000456  00000-0  47834-4 0  9999,2 49136  69.9998  33.0698 0003203 252.9710 107.1097 14.96713326 46948,6955.196999999999,96.211,579.29,574.8340000000002,0.0
49136.0,STARLINK-3084,PAYLOAD,2022-07-16 20:16:14,14.96715399,0.0003202,69.9998,32.2294,253.105,106.9758,2.2242e-05,1.63e-06,0.0,0 STARLINK-3084,1 49136U 21082G   22197.84461208  .00000163  00000-0  22242-4 0  9996,2 49136  69.9998  32.2294 0003202 253.1050 106.9758 14.96715399 46998,6955.19,96.211,579.2819999999998,574.828,0.0
49136.0,STARLINK-3084,PAYLOAD,2022-07-17 12:18:36,14.96721318,0.000319,69.9998,30.5485,252.694,107.387,3.1563e-05,2.7000000000000004e-06,0.0,0 STARLINK-3084,1 49136U 21082G   22198.51292679  .00000270  00000-0  31563-4 0  9990,2 49136  69.9998  30.5485 0003190 252.6940 107.3870 14.96721318 47099,6955.172,96.21,579.256,574.818,0.0
49136.0,STARLINK-3084,PAYLOAD,2022-07-17 18:43:33,14.96722797,0.0003202,69.9997,29.8761,252.5067,107.5741,4.8805e-05,4.67e-06,0.0,0 STARLINK-3084,1 49136U 21082G   22198.78025243  .00000467  00000-0  48805-4 0  9995,2 49136  69.9997  29.8761 0003202 252.5067 107.5741 14.96722797 47135,6955.167,96.21,579.26,574.805,0.0
49136.0,STARLINK-3084,PAYLOAD,2022-07-18 12:22:10,14.96723894,0.0003239,69.9998,28.0271,252.2317,107.8487,0.00020655,2.274e-05,0.0,0 STARLINK-3084,1 49136U 21082G   22199.51539858  .00002274  00000-0  20655-3 0  9999,2 49136  69.9998  28.0271 0003239 252.2317 107.8487 14.96723894 47249,6955.1640000000025,96.21,579.2819999999998,574.776,0.0
49136.0,STARLINK-3084,PAYLOAD,2022-07-18 20:23:22,14.96719788,0.000322,70.0001,27.186,249.8745,110.2067,0.0001144,1.218e-05,0.0,0 STARLINK-3084,1 49136U 21082G   22199.84956253  .00001218  00000-0  11440-3 0  9996,2 49136  70.0001  27.1860 0003220 249.8745 110.2067 14.96719788 47292,6955.177,96.21,579.281,574.802,0.0
49136.0,STARLINK-3084,PAYLOAD,2022-07-19 12:25:45,14.96712464,0.000329,69.9999,25.5055,251.2512,108.8289,0.00016933,1.847e-05,0.0,0 STARLINK-3084,1 49136U 21082G   22200.51788492  .00001847  00000-0  16933-3 0  9991,2 49136  69.9999  25.5055 0003290 251.2512 108.8289 14.96712464 47393,6955.199000000001,96.211,579.3530000000002,574.776,0.0
49136.0,STARLINK-3084,PAYLOAD,2022-07-19 22:03:10,14.96724621,0.0003243,70.0,24.4969,252.5242,107.5562,7.0356e-05,7.14e-06,0.0,0 STARLINK-3084,1 49136U 21082G   22200.91886935  .00000714  00000-0  70356-4 0  9998,2 49136  70.0000  24.4969 0003243 252.5242 107.5562 14.96724621 47458,6955.1619999999975,96.21,579.2819999999998,574.771,0.0
49136.0,STARLINK-3084,PAYLOAD,2022-07-20 14:05:32,14.96728382,0.0003392,69.9996,22.8163,251.5307,108.5483,7.541e-05,7.72e-06,0.0,0 STARLINK-3084,1 49136U 21082G   22201.58718237  .00000772  00000-0  75410-4 0  9991,2 49136  69.9996  22.8163 0003392 251.5307 108.5483 14.96728382 47555,6955.15,96.21,579.374,574.656,0.0
49136.0,STARLINK-3084,PAYLOAD,2022-07-20 18:54:16,14.9671608,0.0003708999999999,69.9994,22.3121,252.9722,107.103,-0.00010956,-1.346e-05,0.0,0 STARLINK-3084,1 49136U 21082G   22201.78768893 -.00001346  00000-0 -10956-3 0  9999,2 49136  69.9994  22.3121 0003709 252.9722 107.1030 14.96716080 47588,6955.188,96.211,579.633,574.474,0.0
49136.0,STARLINK-3084,PAYLOAD,2022-07-20 20:30:30,14.96718325,0.0003627,69.9995,22.1438,254.7127,105.3631,-0.00012006,-1.466e-05,0.0,0 STARLINK-3084,1 49136U 21082G   22201.85451949 -.00001466  00000-0 -12006-3 0  9999,2 49136  69.9995  22.1438 0003627 254.7127 105.3631 14.96718325 47598,6955.181,96.21,579.569,574.524,0.0
49136.0,STARLINK-3084,PAYLOAD,2022-07-20 23:42:58,14.96718386,0.0003648,69.9996,21.8076,254.5162,105.5593,-8.233700000000001e-05,-1.034e-05,0.0,0 STARLINK-3084,1 49136U 21082G   22201.98818228 -.00001034  00000-0 -82337-4 0  9996,2 49136  69.9996  21.8076 0003648 254.5162 105.5593 14.96718386 47612,6955.181,96.21,579.5830000000002,574.509,0.0
49136.0,STARLINK-3084,PAYLOAD,2022-07-21 18:57:50,14.96713197,0.0003373,70.0002,19.7905,252.1564,107.9227,-5.0503e-06,-1.49e-06,0.0,0 STARLINK-3084,1 49136U 21082G   22202.79016964 -.00000149  00000-0 -50503-5 0  9990,2 49136  70.0002  19.7905 0003373 252.1564 107.9227 14.96713197 47733,6955.196999999999,96.211,579.408,574.716,0.0
49136.0,STARLINK-3084,PAYLOAD,2022-07-22 04:35:16,14.96707415,0.0003506,69.9999,18.7818,252.8594,107.218,-0.00013085,-1.589e-05,0.0,0 STARLINK-3084,1 49136U 21082G   22203.19116891 -.00001589  00000-0 -13085-3 0  9996,2 49136  69.9999  18.7818 0003506 252.8594 107.2180 14.96707415 47798,6955.215,96.211,579.519,574.6419999999998,0.0
49136.0,STARLINK-3084,PAYLOAD,2022-07-22 11:00:14,14.96722632,0.0003383,70.0001,18.1097,253.8398,106.2388,-0.00043799,-5.102e-05,0.0,0 STARLINK-3084,1 49136U 21082G   22203.45849675 -.00005102  00000-0 -43799-3 0  9998,2 49136  70.0001  18.1097 0003383 253.8398 106.2388 14.96722632 47836,6955.168000000002,96.21,579.386,574.68,0.0
49136.0,STARLINK-3084,PAYLOAD,2022-07-22 12:36:28,14.9671986,0.0003355,70.0,17.9414,253.311,106.768,-0.00036964,-4.320000000000001e-05,0.0,0 STARLINK-3084,1 49136U 21082G   22203.52532903 -.00004320  00000-0 -36964-3 0  9996,2 49136  70.0000  17.9414 0003355 253.3110 106.7680 14.96719860 47841,6955.177,96.21,579.375,574.7080000000002,0.0
49136.0,STARLINK-3084,PAYLOAD,2022-07-23 04:38:51,14.96705634,0.0003412,70.0003,16.2609,252.1775,107.9011,2.9747e-05,2.49e-06,0.0,0 STARLINK-3084,1 49136U 21082G   22204.19365324  .00000249  00000-0  29747-4 0  9997,2 49136  70.0003  16.2609 0003412 252.1775 107.9011 14.96705634 47946,6955.221,96.211,579.4590000000002,574.7130000000002,0.0
49136.0,STARLINK-3084,PAYLOAD,2022-07-23 12:40:03,14.96706429,0.0003393,70.0003,15.4206,251.5726,108.5063,3.8016e-05,3.43e-06,0.0,0 STARLINK-3084,1 49136U 21082G   22204.52781442  .00000343  00000-0  38016-4 0  9991,2 49136  70.0003  15.4206 0003393 251.5726 108.5063 14.96706429 47999,6955.218000000003,96.211,579.443,574.7230000000002,0.0
49136.0,STARLINK-3084,PAYLOAD,2022-07-23 20:41:14,14.96708932,0.0003339,70.0004,14.5802,251.4003,108.6793,6.564199999999999e-05,6.6e-06,0.0,0 STARLINK-3084,1 49136U 21082G   22204.86197403  .00000660  00000-0  65642-4 0  9993,2 49136  70.0004  14.5802 0003339 251.4003 108.6793 14.96708932 48048,6955.21,96.211,579.398,574.753,0.0
49136.0,STARLINK-3084,PAYLOAD,2022-07-24 01:29:57,14.96714839,0.000338,70.0002,14.0757,251.1858,108.8934,-2.8348e-05,-4.16e-06,0.0,0 STARLINK-3084,1 49136U 21082G   22205.06246865 -.00000416  00000-0 -28348-4 0  9996,2 49136  70.0002  14.0757 0003380 251.1858 108.8934 14.96714839 48076,6955.191999999999,96.211,579.408,574.706,0.0
49136.0,STARLINK-3084,PAYLOAD,2022-07-24 12:43:37,14.96708836,0.0003317,70.0002,12.8991,250.6206,109.4594,0.00015635,1.698e-05,0.0,0 STARLINK-3084,1 49136U 21082G   22205.53029581  .00001698  00000-0  15635-3 0  9997,2 49136  70.0002  12.8991 0003317 250.6206 109.4594 14.96708836 48140,6955.2109999999975,96.211,579.383,574.769,0.0
49136.0,STARLINK-3084,PAYLOAD,2022-07-24 19:08:34,14.9671163,0.0003337,70.0002,12.2265,250.5092,109.5706,0.00014017,1.513e-05,0.0,0 STARLINK-3084,1 49136U 21082G   22205.79762343  .00001513  00000-0  14017-3 0  9994,2 49136  70.0002  12.2265 0003337 250.5092 109.5706 14.96711630 48188,6955.2019999999975,96.211,579.388,574.746,0.0
49136.0,STARLINK-3084,PAYLOAD,2022-07-25 04:46:00,14.96717063,0.0003322,70.0003,11.2181,250.3783,109.7017,0.00015395,1.671e-05,0.0,0 STARLINK-3084,1 49136U 21082G   22206.19861265  .00001671  00000-0  15395-3 0  9997,2 49136  70.0003  11.2181 0003322 250.3783 109.7017 14.96717063 48244,6955.185,96.211,579.361,574.74,0.0
